{
  "type": "FeatureCollection",
  "features": [
    {
      "type": "Feature",
      "properties": {
        "norad_id": 34350,
        "name": "IRIDIUM 33 DEB",
        "group": "iridium-33-debris",
        "lat": -35.20948763428714,
        "lon": -178.48321879423187,
        "alt_km": 752.0287339513106,
        "timestamp": "2025-12-21T16:47:55.123552+00:00",
        "meta_object_name": "IRIDIUM 33 DEB",
        "meta_object_id": "1997-051ES",
        "meta_epoch": "2025-12-21T11:31:45.820416",
        "meta_mean_motion": 14.45405721,
        "meta_eccentricity": 0.0023398,
        "meta_inclination": 86.3272,
        "meta_ra_of_asc_node": 359.0141,
        "meta_arg_of_pericenter": 108.389,
        "meta_mean_anomaly": 44.8421,
        "meta_ephemeris_type": 0,
        "meta_classification_type": "U",
        "meta_norad_cat_id": 34350,
        "meta_element_set_no": 999,
        "meta_rev_at_epoch": 88419,
        "meta_bstar": 0.00026046,
        "meta_mean_motion_dot": 9.39e-06,
        "meta_mean_motion_ddot": 0,
        "tle_line1": "1 34350U 97051ES  25355.48039144  .00000939  00000+0  26046-3 0  9991",
        "tle_line2": "2 34350  86.3272 359.0141 0023398 108.3890  44.8421 14.45405721884198"
      },
      "geometry": {
        "type": "Point",
        "coordinates": [
          -178.48321879423187,
          -35.20948763428714
        ]
      }
    },
    {
      "type": "Feature",
      "properties": {
        "norad_id": 34366,
        "name": "IRIDIUM 33 DEB",
        "group": "iridium-33-debris",
        "lat": 76.54497148419536,
        "lon": -149.97509709562186,
        "alt_km": 688.9712146353359,
        "timestamp": "2025-12-21T16:47:55.123562+00:00",
        "meta_object_name": "IRIDIUM 33 DEB",
        "meta_object_id": "1997-051FJ",
        "meta_epoch": "2025-12-21T03:14:39.196032",
        "meta_mean_motion": 14.54116771,
        "meta_eccentricity": 0.00229982,
        "meta_inclination": 86.369,
        "meta_ra_of_asc_node": 45.662,
        "meta_arg_of_pericenter": 113.5249,
        "meta_mean_anomaly": 274.8967,
        "meta_ephemeris_type": 0,
        "meta_classification_type": "U",
        "meta_norad_cat_id": 34366,
        "meta_element_set_no": 999,
        "meta_rev_at_epoch": 88304,
        "meta_bstar": 0.00059167018,
        "meta_mean_motion_dot": 2.529e-05,
        "meta_mean_motion_ddot": 0,
        "tle_line1": "1 34366U 97051FJ  25355.13517588  .00002529  00000+0  59167-3 0  9990",
        "tle_line2": "2 34366  86.3690  45.6620 0022998 113.5249 274.8967 14.54116771883047"
      },
      "geometry": {
        "type": "Point",
        "coordinates": [
          -149.97509709562186,
          76.54497148419536
        ]
      }
    },
    {
      "type": "Feature",
      "properties": {
        "norad_id": 34375,
        "name": "IRIDIUM 33 DEB",
        "group": "iridium-33-debris",
        "lat": -64.59755730967446,
        "lon": 171.53959351125087,
        "alt_km": 911.0298555580448,
        "timestamp": "2025-12-21T16:47:55.123573+00:00",
        "meta_object_name": "IRIDIUM 33 DEB",
        "meta_object_id": "1997-051FT",
        "meta_epoch": "2025-12-21T00:46:06.767328",
        "meta_mean_motion": 14.18006296,
        "meta_eccentricity": 0.01037011,
        "meta_inclination": 86.4323,
        "meta_ra_of_asc_node": 179.3579,
        "meta_arg_of_pericenter": 100.8025,
        "meta_mean_anomaly": 27.2657,
        "meta_ephemeris_type": 0,
        "meta_classification_type": "U",
        "meta_norad_cat_id": 34375,
        "meta_element_set_no": 999,
        "meta_rev_at_epoch": 86829,
        "meta_bstar": 0.00030848,
        "meta_mean_motion_dot": 6.86e-06,
        "meta_mean_motion_ddot": 0,
        "tle_line1": "1 34375U 97051FT  25355.03202277  .00000686  00000+0  30848-3 0  9992",
        "tle_line2": "2 34375  86.4323 179.3579 0103701 100.8025  27.2657 14.18006296868298"
      },
      "geometry": {
        "type": "Point",
        "coordinates": [
          171.53959351125087,
          -64.59755730967446
        ]
      }
    },
    {
      "type": "Feature",
      "properties": {
        "norad_id": 34376,
        "name": "IRIDIUM 33 DEB",
        "group": "iridium-33-debris",
        "lat": -54.4469092952842,
        "lon": -2.687177815554891,
        "alt_km": 711.1279198627317,
        "timestamp": "2025-12-21T16:47:55.123583+00:00",
        "meta_object_name": "IRIDIUM 33 DEB",
        "meta_object_id": "1997-051FU",
        "meta_epoch": "2025-12-21T12:07:24.796704",
        "meta_mean_motion": 14.62675501,
        "meta_eccentricity": 0.0028141,
        "meta_inclination": 86.2976,
        "meta_ra_of_asc_node": 2.5986,
        "meta_arg_of_pericenter": 137.7647,
        "meta_mean_anomaly": 222.5739,
        "meta_ephemeris_type": 0,
        "meta_classification_type": "U",
        "meta_norad_cat_id": 34376,
        "meta_element_set_no": 999,
        "meta_rev_at_epoch": 88135,
        "meta_bstar": 0.0010611,
        "meta_mean_motion_dot": 5.451e-05,
        "meta_mean_motion_ddot": 0,
        "tle_line1": "1 34376U 97051FU  25355.50514811  .00005451  00000+0  10611-2 0  9995",
        "tle_line2": "2 34376  86.2976   2.5986 0028141 137.7647 222.5739 14.62675501881356"
      },
      "geometry": {
        "type": "Point",
        "coordinates": [
          -2.687177815554891,
          -54.4469092952842
        ]
      }
    },
    {
      "type": "Feature",
      "properties": {
        "norad_id": 34486,
        "name": "IRIDIUM 33 DEB",
        "group": "iridium-33-debris",
        "lat": 22.97631197677131,
        "lon": -173.64515760609757,
        "alt_km": 575.2129445321825,
        "timestamp": "2025-12-21T16:47:55.123594+00:00",
        "meta_object_name": "IRIDIUM 33 DEB",
        "meta_object_id": "1997-051GB",
        "meta_epoch": "2025-12-21T11:59:52.871136",
        "meta_mean_motion": 14.96153713,
        "meta_eccentricity": 0.0013912,
        "meta_inclination": 86.3925,
        "meta_ra_of_asc_node": 7.98,
        "meta_arg_of_pericenter": 87.4121,
        "meta_mean_anomaly": 72.6515,
        "meta_ephemeris_type": 0,
        "meta_classification_type": "U",
        "meta_norad_cat_id": 34486,
        "meta_element_set_no": 999,
        "meta_rev_at_epoch": 89117,
        "meta_bstar": 0.0016024,
        "meta_mean_motion_dot": 0.00018125,
        "meta_mean_motion_ddot": 0,
        "tle_line1": "1 34486U 97051GB  25355.49991749  .00018125  00000+0  16024-2 0  9990",
        "tle_line2": "2 34486  86.3925   7.9800 0013912  87.4121  72.6515 14.96153713891175"
      },
      "geometry": {
        "type": "Point",
        "coordinates": [
          -173.64515760609757,
          22.97631197677131
        ]
      }
    },
    {
      "type": "Feature",
      "properties": {
        "norad_id": 34487,
        "name": "IRIDIUM 33 DEB",
        "group": "iridium-33-debris",
        "lat": -85.67870928833058,
        "lon": -49.2995054305534,
        "alt_km": 778.7521822735916,
        "timestamp": "2025-12-21T16:47:55.123604+00:00",
        "meta_object_name": "IRIDIUM 33 DEB",
        "meta_object_id": "1997-051GC",
        "meta_epoch": "2025-12-21T00:51:13.870080",
        "meta_mean_motion": 14.43225793,
        "meta_eccentricity": 0.00332106,
        "meta_inclination": 86.343,
        "meta_ra_of_asc_node": 8.8054,
        "meta_arg_of_pericenter": 102.5675,
        "meta_mean_anomaly": 320.0917,
        "meta_ephemeris_type": 0,
        "meta_classification_type": "U",
        "meta_norad_cat_id": 34487,
        "meta_element_set_no": 999,
        "meta_rev_at_epoch": 88368,
        "meta_bstar": 0.00013015301,
        "meta_mean_motion_dot": 4.61e-06,
        "meta_mean_motion_ddot": 0,
        "tle_line1": "1 34487U 97051GC  25355.03557720  .00000461  00000+0  13015-3 0  9990",
        "tle_line2": "2 34487  86.3430   8.8054 0033210 102.5675 320.0917 14.43225793883687"
      },
      "geometry": {
        "type": "Point",
        "coordinates": [
          -49.2995054305534,
          -85.67870928833058
        ]
      }
    },
    {
      "type": "Feature",
      "properties": {
        "norad_id": 34488,
        "name": "IRIDIUM 33 DEB",
        "group": "iridium-33-debris",
        "lat": 8.035597793999935,
        "lon": 120.84779090862614,
        "alt_km": 479.0305926189767,
        "timestamp": "2025-12-21T16:47:55.123614+00:00",
        "meta_object_name": "IRIDIUM 33 DEB",
        "meta_object_id": "1997-051GD",
        "meta_epoch": "2025-12-20T21:13:54.490080",
        "meta_mean_motion": 15.31302202,
        "meta_eccentricity": 0.0010948,
        "meta_inclination": 86.3254,
        "meta_ra_of_asc_node": 301.7725,
        "meta_arg_of_pericenter": 38.0894,
        "meta_mean_anomaly": 322.1127,
        "meta_ephemeris_type": 0,
        "meta_classification_type": "U",
        "meta_norad_cat_id": 34488,
        "meta_element_set_no": 999,
        "meta_rev_at_epoch": 89364,
        "meta_bstar": 0.0030791,
        "meta_mean_motion_dot": 0.00094223,
        "meta_mean_motion_ddot": 0,
        "tle_line1": "1 34488U 97051GD  25354.88465845  .00094223  00000+0  30791-2 0  9997",
        "tle_line2": "2 34488  86.3254 301.7725 0010948  38.0894 322.1127 15.31302202893643"
      },
      "geometry": {
        "type": "Point",
        "coordinates": [
          120.84779090862614,
          8.035597793999935
        ]
      }
    }
  ]
}